NORAD_CAT_ID,OBJECT_NAME,OBJECT_TYPE,EPOCH,MEAN_MOTION,ECCENTRICITY,INCLINATION,RA_OF_ASC_NODE,ARG_OF_PERICENTER,MEAN_ANOMALY,BSTAR,MEAN_MOTION_DOT,MEAN_MOTION_DDOT,TLE_LINE0,TLE_LINE1,TLE_LINE2,SEMIMAJOR_AXIS,PERIOD,APOGEE,PERIGEE,DECAYED
49431.0,STARLINK-3153,PAYLOAD,2022-06-10 05:46:48,15.0882886,0.0002703,53.2182,252.3196,32.1581,327.9575,8.9445e-05,1.135e-05,0.0,0 STARLINK-3153,1 49431U 21104Z   22161.24083736  .00001135  00000-0  89445-4 0  9998,2 49431  53.2182 252.3196 0002703  32.1581 327.9575 15.08828860 33127,6917.9140000000025,95.438,541.649,537.91,0.0
49431.0,STARLINK-3153,PAYLOAD,2022-06-10 12:08:20,15.088331599999998,0.0002582,53.2177,251.1295,29.8765,330.2374,4.9531e-05,5e-06,0.0,0 STARLINK-3153,1 49431U 21104Z   22161.50579749  .00000500  00000-0  49531-4 0  9998,2 49431  53.2177 251.1295 0002582  29.8765 330.2374 15.08833160 32087,6917.901,95.438,541.552,537.98,0.0
49431.0,STARLINK-3153,PAYLOAD,2022-06-10 16:54:30,15.08837338,0.0002643,53.2176,250.2375,29.4898,330.6243,7.905e-05,9.7e-06,0.0,0 STARLINK-3153,1 49431U 21104Z   22161.70451461  .00000970  00000-0  79050-4 0  9990,2 49431  53.2176 250.2375 0002643  29.4898 330.6243 15.08837338 33199,6917.889,95.438,541.582,537.925,0.0
49431.0,STARLINK-3153,PAYLOAD,2022-06-10 23:16:02,15.08857145,0.0002497,53.2176,249.0481,29.1283,330.9848,-0.00011253,-2.08e-05,0.0,0 STARLINK-3153,1 49431U 21104Z   22161.96946792 -.00002080  00000-0 -11253-3 0  9990,2 49431  53.2176 249.0481 0002497  29.1283 330.9848 15.08857145 33232,6917.828,95.436,541.42,537.966,0.0
49431.0,STARLINK-3153,PAYLOAD,2022-06-11 15:09:53,15.08838593,0.000265,53.2173,246.0751,31.0908,329.024,0.00011546,1.55e-05,0.0,0 STARLINK-3153,1 49431U 21104Z   22162.63187283  .00001550  00000-0  11546-3 0  9991,2 49431  53.2173 246.0751 0002650  31.0908 329.0240 15.08838593 33335,6917.885,95.438,541.5830000000002,537.9159999999998,0.0
49431.0,STARLINK-3153,PAYLOAD,2022-06-12 11:49:54,15.08846098,0.0002605,53.2163,242.2082,33.1543,326.9612,7.1015e-05,8.42e-06,0.0,0 STARLINK-3153,1 49431U 21104Z   22163.49298966  .00000842  00000-0  71015-4 0  9998,2 49431  53.2163 242.2082 0002605  33.1543 326.9612 15.08846098 32389,6917.861999999999,95.437,541.529,537.925,0.0
49431.0,STARLINK-3153,PAYLOAD,2022-06-12 15:00:40,15.08851562,0.000275,53.2164,241.6146,38.6148,321.5041,1.15e-05,-1.05e-06,0.0,0 STARLINK-3153,1 49431U 21104Z   22163.62546730 -.00000105  00000-0  11500-4 0  9994,2 49431  53.2164 241.6146 0002750  38.6148 321.5041 15.08851562 33487,6917.845,95.437,541.612,537.808,0.0
49431.0,STARLINK-3153,PAYLOAD,2022-06-13 11:40:41,15.08849032,0.0002678,53.2171,237.7488,31.2168,328.8983,-7.369400000000003e-06,-4.06e-06,0.0,0 STARLINK-3153,1 49431U 21104Z   22164.48658655 -.00000406  00000-0 -73694-5 0  9997,2 49431  53.2171 237.7488 0002678  31.2168 328.8983 15.08849032 33619,6917.853,95.437,541.57,537.865,0.0
49431.0,STARLINK-3153,PAYLOAD,2022-06-13 14:51:27,15.0885004,0.0002709,53.2171,237.1542,32.0587,328.057,-8.5752e-06,-4.25e-06,0.0,0 STARLINK-3153,1 49431U 21104Z   22164.61906530 -.00000425  00000-0 -85752-5 0  9999,2 49431  53.2171 237.1542 0002709  32.0587 328.0570 15.08850040 32550,6917.85,95.437,541.589,537.841,0.0
49431.0,STARLINK-3153,PAYLOAD,2022-06-14 11:31:28,15.08840595,0.0002647,53.2166,233.2876,32.2218,327.8936,1.5075e-06,-2.65e-06,0.0,0 STARLINK-3153,1 49431U 21104Z   22165.48018929 -.00000265  00000-0  15075-5 0  9993,2 49431  53.2166 233.2876 0002647  32.2218 327.8936 15.08840595 33766,6917.879,95.438,541.575,537.9119999999998,0.0
49431.0,STARLINK-3153,PAYLOAD,2022-06-15 05:00:43,15.08833034,0.0002707,53.2169,230.0171,30.5271,329.5878,-7.1136e-05,-1.42e-05,0.0,0 STARLINK-3153,1 49431U 21104Z   22166.20883793 -.00001420  00000-0 -71136-4 0  9997,2 49431  53.2169 230.0171 0002707  30.5271 329.5878 15.08833034 33875,6917.901999999999,95.438,541.639,537.894,0.0
49431.0,STARLINK-3153,PAYLOAD,2022-06-15 11:22:15,15.08839567,0.0002729,53.2173,228.8284,32.0538,328.0619999999999,-1.4255e-05,-5.15e-06,0.0,0 STARLINK-3153,1 49431U 21104Z   22166.47379238 -.00000515  00000-0 -14255-4 0  9993,2 49431  53.2173 228.8284 0002729  32.0538 328.0620 15.08839567 33918,6917.882,95.438,541.635,537.859,0.0
49431.0,STARLINK-3153,PAYLOAD,2022-06-15 20:54:34,15.08839477,0.000275,53.2174,227.0445,33.0551,327.0612,-2.1584e-05,-6.32e-06,0.0,0 STARLINK-3153,1 49431U 21104Z   22166.87123330 -.00000632  00000-0 -21584-4 0  9990,2 49431  53.2174 227.0445 0002750  33.0551 327.0612 15.08839477 32895,6917.882,95.438,541.649,537.845,0.0
49431.0,STARLINK-3153,PAYLOAD,2022-06-19 12:20:49,15.08843659,0.0002848,53.2167,210.6891,33.1012,327.0158,0.0001583,2.232e-05,0.0,0 STARLINK-3153,1 49431U 21104Z   22170.51445756  .00002232  00000-0  15830-3 0  9997,2 49431  53.2167 210.6891 0002848  33.1012 327.0158 15.08843659 33445,6917.869000000002,95.437,541.7040000000002,537.764,0.0
49431.0,STARLINK-3153,PAYLOAD,2022-06-19 20:17:44,15.08847493,0.0002866,53.2167,209.2024,33.7075,326.4099,0.00016379,2.32e-05,0.0,0 STARLINK-3153,1 49431U 21104Z   22170.84565389  .00002320  00000-0  16379-3 0  9995,2 49431  53.2167 209.2024 0002866  33.7075 326.4099 15.08847493 33494,6917.857,95.437,541.705,537.74,0.0
49431.0,STARLINK-3153,PAYLOAD,2022-06-20 09:00:50,15.08840907,0.0002893,53.2168,206.8237,34.7706,325.3475,3.3642e-05,2.47e-06,0.0,0 STARLINK-3153,1 49431U 21104Z   22171.37558086  .00000247  00000-0  33642-4 0  9999,2 49431  53.2168 206.8237 0002893  34.7706 325.3475 15.08840907 34654,6917.878000000002,95.437,541.744,537.741,0.0
49431.0,STARLINK-3153,PAYLOAD,2022-06-20 12:11:36,15.08839135,0.0002888,53.217,206.229,34.5568,325.5611,1.4436e-05,-5.9e-07,0.0,0 STARLINK-3153,1 49431U 21104Z   22171.50806245 -.00000059  00000-0  14436-4 0  9999,2 49431  53.2170 206.2290 0002888  34.5568 325.5611 15.08839135 33595,6917.8830000000025,95.438,541.746,537.75,0.0
49431.0,STARLINK-3153,PAYLOAD,2022-06-21 08:51:36,15.08847331,0.0002896,53.2169,202.363,34.3867,325.7312,4.071e-05,3.59e-06,0.0,0 STARLINK-3153,1 49431U 21104Z   22172.36917299  .00000359  00000-0  40710-4 0  9992,2 49431  53.2169 202.3630 0002896  34.3867 325.7312 15.08847331 34809,6917.858,95.437,541.726,537.72,0.0
49431.0,STARLINK-3153,PAYLOAD,2022-06-21 18:23:55,15.08851556,0.0002918,53.217,200.5789,34.6182,325.4999,-3.5703e-06,-3.46e-06,0.0,0 STARLINK-3153,1 49431U 21104Z   22172.76660903 -.00000346  00000-0 -35703-5 0  9998,2 49431  53.2170 200.5789 0002918  34.6182 325.4999 15.08851556 33782,6917.845,95.437,541.729,537.691,0.0
49431.0,STARLINK-3153,PAYLOAD,2022-06-22 03:56:14,15.08839559,0.0002941,53.2165,198.7943,34.3704,325.7478,-4.8797e-06,-3.66e-06,0.0,0 STARLINK-3153,1 49431U 21104Z   22173.16405468 -.00000366  00000-0 -48797-5 0  9995,2 49431  53.2165 198.7943 0002941  34.3704 325.7478 15.08839559 34920,6917.882,95.438,541.781,537.712,0.0
49431.0,STARLINK-3153,PAYLOAD,2022-06-22 10:17:47,15.08831487,0.0002944,53.2165,197.6053,35.008,325.1105,-2.0354e-05,-6.12e-06,0.0,0 STARLINK-3153,1 49431U 21104Z   22173.42902064 -.00000612  00000-0 -20354-4 0  9990,2 49431  53.2165 197.6053 0002944  35.0080 325.1105 15.08831487 34965,6917.906,95.438,541.808,537.735,0.0
49431.0,STARLINK-3153,PAYLOAD,2022-06-22 18:14:42,15.08834673,0.0002956,53.2168,196.1187,36.0915,324.0276,-1.6641e-05,-5.53e-06,0.0,0 STARLINK-3153,1 49431U 21104Z   22173.76021955 -.00000553  00000-0 -16641-4 0  9996,2 49431  53.2168 196.1187 0002956  36.0915 324.0276 15.08834673 33934,6917.897,95.438,541.807,537.717,0.0
49431.0,STARLINK-3153,PAYLOAD,2022-06-23 03:47:01,15.08838735,0.0002964,53.2165,194.3341,35.8763,324.2427,-2.3569e-05,-6.64e-06,0.0,0 STARLINK-3153,1 49431U 21104Z   22174.15765785 -.00000664  00000-0 -23569-4 0  9996,2 49431  53.2165 194.3341 0002964  35.8763 324.2427 15.08838735 35070,6917.884,95.438,541.8,537.6990000000002,0.0
49431.0,STARLINK-3153,PAYLOAD,2022-06-23 10:08:34,15.08838449,0.0002981,53.2166,193.1448,36.3542,323.7652,-2.473e-05,-6.82e-06,0.0,0 STARLINK-3153,1 49431U 21104Z   22174.42261816 -.00000682  00000-0 -24730-4 0  9993,2 49431  53.2166 193.1448 0002981  36.3542 323.7652 15.08838449 34037,6917.885,95.438,541.812,537.688,0.0
49431.0,STARLINK-3153,PAYLOAD,2022-06-23 18:05:29,15.0884022,0.0002996,53.2166,191.658,36.634,323.4856,-3.1914e-05,-7.97e-06,0.0,0 STARLINK-3153,1 49431U 21104Z   22174.75381743 -.00000797  00000-0 -31914-4 0  9990,2 49431  53.2166 191.6580 0002996  36.6340 323.4856 15.08840220 34080,6917.88,95.438,541.817,537.672,0.0
49431.0,STARLINK-3153,PAYLOAD,2022-06-24 09:59:21,15.08835261,0.0003038,53.2164,188.6841,36.7058,323.4142,7.3763e-05,8.85e-06,0.0,0 STARLINK-3153,1 49431U 21104Z   22175.41621784  .00000885  00000-0  73763-4 0  9990,2 49431  53.2164 188.6841 0003038  36.7058 323.4142 15.08835261 35267,6917.895,95.438,541.862,537.658,0.0
49431.0,STARLINK-3153,PAYLOAD,2022-06-24 17:56:16,15.08837381,0.0003043,53.2163,187.1973,37.2545,322.8658,6.9937e-05,8.25e-06,0.0,0 STARLINK-3153,1 49431U 21104Z   22175.74741734  .00000825  00000-0  69937-4 0  9996,2 49431  53.2163 187.1973 0003043  37.2545 322.8658 15.08837381 34235,6917.888000000001,95.438,541.859,537.648,0.0
49431.0,STARLINK-3153,PAYLOAD,2022-06-25 09:50:08,15.08841084,0.0003096,53.2166,184.2236,38.9886,321.1329,6.6208e-05,7.65e-06,0.0,0 STARLINK-3153,1 49431U 21104Z   22176.40981569  .00000765  00000-0  66208-4 0  9993,2 49431  53.2166 184.2236 0003096  38.9886 321.1329 15.08841084 34335,6917.877,95.437,541.884,537.6,0.0
49431.0,STARLINK-3153,PAYLOAD,2022-06-25 17:47:03,15.08842554,0.0003113,53.2168,182.7369,39.4661,320.6557,6.325100000000001e-05,7.18e-06,0.0,0 STARLINK-3153,1 49431U 21104Z   22176.74101426  .00000718  00000-0  63251-4 0  9999,2 49431  53.2168 182.7369 0003113  39.4661 320.6557 15.08842554 35469,6917.873000000001,95.437,541.891,537.5840000000002,0.0
